[{"OBJECT_NAME":"IRIDIUM 153","OBJECT_ID":"2017-083J","EPOCH":"2026-03-09T17:37:27.321600","MEAN_MOTION":14.3421931,"ECCENTRICITY":0.00020663,"INCLINATION":86.4011,"RA_OF_ASC_NODE":332.0651,"ARG_OF_PERICENTER":78.2032,"MEAN_ANOMALY":281.9395,"EPHEMERIS_TYPE":0,"CLASSIFICATION_TYPE":"U","NORAD_CAT_ID":43078,"ELEMENT_SET_NO":999,"REV_AT_EPOCH":43102,"BSTAR":0.00013580014,"MEAN_MOTION_DOT":4.0e-6,"MEAN_MOTION_DDOT":0},{"OBJECT_NAME":"CZ-6A DEB","OBJECT_ID":"2024-140ZR","EPOCH":"2026-03-09T11:15:26.585280","MEAN_MOTION":14.43479486,"ECCENTRICITY":0.00416259,"INCLINATION":88.4476,"RA_OF_ASC_NODE":245.0737,"ARG_OF_PERICENTER":256.132,"MEAN_ANOMALY":103.5251,"EPHEMERIS_TYPE":0,"CLASSIFICATION_TYPE":"U","NORAD_CAT_ID":61459,"ELEMENT_SET_NO":999,"REV_AT_EPOCH":8133,"BSTAR":0.00094178621,"MEAN_MOTION_DOT":3.232e-5,"MEAN_MOTION_DDOT":0}]
